{"fetched_at":"2026-03-29T16:36:15Z","count":15609,"tles":[{"name":"STARLINK-31051","line1":"1 58719U 24002Q   26087.42914547  .00001847  00000+0  74494-4 0  9998","line2":"2 58719  53.1606 142.9456 0001145  74.7510 285.3617 15.30188498124881","category":"Starlink"}]}